{
  "norad_id": 55280,
  "name": "STARLINK-5331",
  "history": [
    {
      "epoch": "2026-03-28T22:15:36.870048Z",
      "apogee_km": 574.0930168818859,
      "perigee_km": 570.0007486117238,
      "latitude_deg": 2.2568733304174075e-05,
      "longitude_deg": -164.14324860889732,
      "height_km": 574.5209107485433,
      "semi_major_axis_km": 6950.183882746805,
      "eccentricity": 0.0002944,
      "inclination_deg": 70.0004,
      "raan_deg": 356.1013,
      "arg_perigee_deg": 268.6952,
      "mean_anomaly_deg": 91.387,
      "mean_motion_rev_day": 14.98332913
    },
    {
      "epoch": "2026-03-29T03:04:00.869376Z",
      "apogee_km": 574.0652908887187,
      "perigee_km": 570.0161173582965,
      "latitude_deg": -2.4258749908725785e-05,
      "longitude_deg": 123.05433449954516,
      "height_km": 574.4964510974722,
      "semi_major_axis_km": 6950.177704123507,
      "eccentricity": 0.0002913,
      "inclination_deg": 70.0005,
      "raan_deg": 355.5963,
      "arg_perigee_deg": 269.1982,
      "mean_anomaly_deg": 90.8843,
      "mean_motion_rev_day": 14.98334911
    },
    {
      "epoch": "2026-03-30T03:06:02.288160Z",
      "apogee_km": 574.0836920220299,
      "perigee_km": 570.0331181399488,
      "latitude_deg": -1.9484906436342416e-05,
      "longitude_deg": 119.0365951066225,
      "height_km": 574.431478910758,
      "semi_major_axis_km": 6950.195405080989,
      "eccentricity": 0.0002914,
      "inclination_deg": 70.0004,
      "raan_deg": 353.0715,
      "arg_perigee_deg": 271.5368,
      "mean_anomaly_deg": 88.5457,
      "mean_motion_rev_day": 14.98329187
    },
    {
      "epoch": "2026-03-30T11:06:42.879456Z",
      "apogee_km": 573.9935493285575,
      "perigee_km": 570.1673156276302,
      "latitude_deg": -3.673322292678117e-05,
      "longitude_deg": -2.303452538816975,
      "height_km": 574.7087797420826,
      "semi_major_axis_km": 6950.2174324780935,
      "eccentricity": 0.00027526,
      "inclination_deg": 70.0009,
      "raan_deg": 352.2296,
      "arg_perigee_deg": 263.9671,
      "mean_anomaly_deg": 96.1174,
      "mean_motion_rev_day": 14.98322064
    },
    {
      "epoch": "2026-03-30T20:43:31.024992Z",
      "apogee_km": 574.094224759785,
      "perigee_km": 570.0172417024714,
      "latitude_deg": 9.23364768690716e-05,
      "longitude_deg": -147.90871898756797,
      "height_km": 574.4298320053052,
      "semi_major_axis_km": 6950.192733231128,
      "eccentricity": 0.0002933,
      "inclination_deg": 70.0003,
      "raan_deg": 351.2197,
      "arg_perigee_deg": 271.4981,
      "mean_anomaly_deg": 88.5843,
      "mean_motion_rev_day": 14.98330051
    },
    {
      "epoch": "2026-03-31T03:08:03.264576Z",
      "apogee_km": 574.1179890921803,
      "perigee_km": 569.9924939814491,
      "latitude_deg": 5.857354289818754e-06,
      "longitude_deg": 115.02041200273922,
      "height_km": 574.4604589072698,
      "semi_major_axis_km": 6950.192241536814,
      "eccentricity": 0.00029679,
      "inclination_deg": 70.0005,
      "raan_deg": 350.5464,
      "arg_perigee_deg": 270.6177,
      "mean_anomaly_deg": 89.4642,
      "mean_motion_rev_day": 14.9833021
    },
    {
      "epoch": "2026-04-01T03:10:04.217664Z",
      "apogee_km": 574.1063630890185,
      "perigee_km": 570.0097791102116,
      "latitude_deg": -2.9428284290649612e-05,
      "longitude_deg": 111.00480461280335,
      "height_km": 574.4706374734948,
      "semi_major_axis_km": 6950.195071099615,
      "eccentricity": 0.00029471,
      "inclination_deg": 70.0004,
      "raan_deg": 348.0218,
      "arg_perigee_deg": 270.4158,
      "mean_anomaly_deg": 89.6663,
      "mean_motion_rev_day": 14.98329295
    },
    {
      "epoch": "2026-04-02T03:12:04.694688Z",
      "apogee_km": 573.7995688478368,
      "perigee_km": 570.2617944945123,
      "latitude_deg": 6.947454385037373e-05,
      "longitude_deg": 106.99093460639142,
      "height_km": 574.7034968829445,
      "semi_major_axis_km": 6950.167681671174,
      "eccentricity": 0.00025451,
      "inclination_deg": 70.0006,
      "raan_deg": 345.4969,
      "arg_perigee_deg": 262.0135,
      "mean_anomaly_deg": 98.0736,
      "mean_motion_rev_day": 14.98338152
    }
  ]
}